{"type": "FeatureCollection", "features": [ {"type": "Feature", "properties": {"norad_id": 30716, "name": "FENGYUN 1C DEB", "group": "fengyun-1c-debris", "lat": 57.881645135058456, "lon": 20.661072142672644, "alt_km": 622.2100619644725, "timestamp": "2025-12-27T15:27:11.468980+00:00", "meta": {"OBJECT_NAME": "FENGYUN 1C DEB", "OBJECT_ID": "1999-025ASA", "EPOCH": "2025-12-26T11:37:35.279904", "MEAN_MOTION": 14.80105526, "ECCENTRICITY": 0.0021257, "INCLINATION": 98.8725, "RA_OF_ASC_NODE": 184.972, "ARG_OF_PERICENTER": 38.2737, "MEAN_ANOMALY": 27.9747, "EPHEMERIS_TYPE": 0, "CLASSIFICATION_TYPE": "U", "NORAD_CAT_ID": 30716, "ELEMENT_SET_NO": 999, "REV_AT_EPOCH": 98027, "BSTAR": 0.0036596, "MEAN_MOTION_DOT": 0.00027903, "MEAN_MOTION_DDOT": 0}, "tle": {"line1": "1 30716U 99025ASA 25360.48443611  .00027903  00000+0  36596-2 0  9990", "line2": "2 30716  98.8725 184.9720 0021257  38.2737  27.9747 14.80105526980270"}}, "geometry": {"type": "Point", "coordinates": [20.661072142672644, 57.881645135058456]}}, {"type": "Feature", "properties": {"norad_id": 30717, "name": "FENGYUN 1C DEB", "group": "fengyun-1c-debris", "lat": 27.500380779639027, "lon": 67.95081581308305, "alt_km": 857.2493058280506, "timestamp": "2025-12-27T15:27:11.468990+00:00", "meta": {"OBJECT_NAME": "FENGYUN 1C DEB", "OBJECT_ID": "1999-025ASB", "EPOCH": "2025-12-27T03:29:19.586976", "MEAN_MOTION": 14.20625505, "ECCENTRICITY": 0.0049363, "INCLINATION": 99.0163, "RA_OF_ASC_NODE": 72.1838, "ARG_OF_PERICENTER": 217.1877, "MEAN_ANOMALY": 142.5876, "EPHEMERIS_TYPE": 0, "CLASSIFICATION_TYPE": "U", "NORAD_CAT_ID": 30717, "ELEMENT_SET_NO": 999, "REV_AT_EPOCH": 96741, "BSTAR": 0.0016138302, "MEAN_MOTION_DOT": 3.471e-05, "MEAN_MOTION_DDOT": 0}, "tle": {"line1": "1 30717U 99025ASB 25361.14536559  .00003471  00000+0  16138-2 0  9993", "line2": "2 30717  99.0163  72.1838 0049363 217.1877 142.5876 14.20625505967415"}}, "geometry": {"type": "Point", "coordinates": [67.95081581308305, 27.500380779639027]}}, {"type": "Feature", "properties": {"norad_id": 30718, "name": "FENGYUN 1C DEB", "group": "fengyun-1c-debris", "lat": -56.60566577614034, "lon": 95.95432560305608, "alt_km": 857.8507698599551, "timestamp": "2025-12-27T15:27:11.469000+00:00", "meta": {"OBJECT_NAME": "FENGYUN 1C DEB", "OBJECT_ID": "1999-025ASC", "EPOCH": "2025-12-27T03:55:30.708768", "MEAN_MOTION": 14.24450202, "ECCENTRICITY": 0.00568768, "INCLINATION": 98.8895, "RA_OF_ASC_NODE": 81.7348, "ARG_OF_PERICENTER": 115.7873, "MEAN_ANOMALY": 244.9189, "EPHEMERIS_TYPE": 0, "CLASSIFICATION_TYPE": "U", "NORAD_CAT_ID": 30718, "ELEMENT_SET_NO": 999, "REV_AT_EPOCH": 96979, "BSTAR": 0.0017514344, "MEAN_MOTION_DOT": 4.082e-05, "MEAN_MOTION_DDOT": 0}, "tle": {"line1": "1 30718U 99025ASC 25361.16354987  .00004082  00000+0  17514-2 0  9997", "line2": "2 30718  98.8895  81.7348 0056876 115.7873 244.9189 14.24450202969794"}}, "geometry": {"type": "Point", "coordinates": [95.95432560305608, -56.60566577614034]}}, {"type": "Feature", "properties": {"norad_id": 30719, "name": "FENGYUN 1C DEB", "group": "fengyun-1c-debris", "lat": 25.98665502345469, "lon": 140.0839797422747, "alt_km": 697.5072633807949, "timestamp": "2025-12-27T15:27:11.469010+00:00", "meta": {"OBJECT_NAME": "FENGYUN 1C DEB", "OBJECT_ID": "1999-025ASD", "EPOCH": "2025-12-26T16:18:03.987648", "MEAN_MOTION": 14.59693676, "ECCENTRICITY": 0.00103033, "INCLINATION": 98.8874, "RA_OF_ASC_NODE": 143.4255, "ARG_OF_PERICENTER": 156.2599, "MEAN_ANOMALY": 203.9076, "EPHEMERIS_TYPE": 0, "CLASSIFICATION_TYPE": "U", "NORAD_CAT_ID": 30719, "ELEMENT_SET_NO": 999, "REV_AT_EPOCH": 97652, "BSTAR": 0.0039224078, "MEAN_MOTION_DOT": 0.00018707, "MEAN_MOTION_DDOT": 0}, "tle": {"line1": "1 30719U 99025ASD 25360.67921282  .00018707  00000+0  39224-2 0  9992", "line2": "2 30719  98.8874 143.4255 0010303 156.2599 203.9076 14.59693676976526"}}, "geometry": {"type": "Point", "coordinates": [140.0839797422747, 25.98665502345469]}}, {"type": "Feature", "properties": {"norad_id": 30720, "name": "FENGYUN 1C DEB", "group": "fengyun-1c-debris", "lat": -34.7628736095471, "lon": -10.665736424553371, "alt_km": 792.8625913572523, "timestamp": "2025-12-27T15:27:11.469021+00:00", "meta": {"OBJECT_NAME": "FENGYUN 1C DEB", "OBJECT_ID": "1999-025ASE", "EPOCH": "2025-12-25T00:51:41.809248", "MEAN_MOTION": 14.29148234, "ECCENTRICITY": 0.00323657, "INCLINATION": 99.0359, "RA_OF_ASC_NODE": 172.9733, "ARG_OF_PERICENTER": 293.0313, "MEAN_ANOMALY": 192.1103, "EPHEMERIS_TYPE": 0, "CLASSIFICATION_TYPE": "U", "NORAD_CAT_ID": 30720, "ELEMENT_SET_NO": 999, "REV_AT_EPOCH": 97664, "BSTAR": 0.00041523035, "MEAN_MOTION_DOT": 1.012e-05, "MEAN_MOTION_DDOT": 0}, "tle": {"line1": "1 30720U 99025ASE 25359.03590057  .00001012  00000+0  41523-3 0  9991", "line2": "2 30720  99.0359 172.9733 0032365 293.0313 192.1103 14.29148234976648"}}, "geometry": {"type": "Point", "coordinates": [-10.665736424553371, -34.7628736095471]}}, {"type": "Feature", "properties": {"norad_id": 30721, "name": "FENGYUN 1C DEB", "group": "fengyun-1c-debris", "lat": -55.18190680264064, "lon": -58.73355405249544, "alt_km": 649.3678359751602, "timestamp": "2025-12-27T15:27:11.469031+00:00", "meta": {"OBJECT_NAME": "FENGYUN 1C DEB", "OBJECT_ID": "1999-025ASF", "EPOCH": "2025-12-26T07:29:36.799872", "MEAN_MOTION": 14.72412073, "ECCENTRICITY": 0.0028561, "INCLINATION": 98.7095, "RA_OF_ASC_NODE": 132.5737, "ARG_OF_PERICENTER": 297.7069, "MEAN_ANOMALY": 84.0228, "EPHEMERIS_TYPE": 0, "CLASSIFICATION_TYPE": "U", "NORAD_CAT_ID": 30721, "ELEMENT_SET_NO": 999, "REV_AT_EPOCH": 98042, "BSTAR": 0.0034753, "MEAN_MOTION_DOT": 0.00022171, "MEAN_MOTION_DDOT": 0}, "tle": {"line1": "1 30721U 99025ASF 25360.31223148  .00022171  00000+0  34753-2 0  9994", "line2": "2 30721  98.7095 132.5737 0028561 297.7069  84.0228 14.72412073980421"}}, "geometry": {"type": "Point", "coordinates": [-58.73355405249544, -55.18190680264064]}}, {"type": "Feature", "properties": {"norad_id": 30723, "name": "FENGYUN 1C DEB", "group": "fengyun-1c-debris", "lat": -79.40337620194373, "lon": -148.12853008409536, "alt_km": 752.4042815000021, "timestamp": "2025-12-27T15:27:11.469041+00:00", "meta": {"OBJECT_NAME": "FENGYUN 1C DEB", "OBJECT_ID": "1999-025ASH", "EPOCH": "2025-12-26T11:53:03.257376", "MEAN_MOTION": 14.41522552, "ECCENTRICITY": 0.0016505, "INCLINATION": 98.8425, "RA_OF_ASC_NODE": 86.9961, "ARG_OF_PERICENTER": 222.5235, "MEAN_ANOMALY": 203.6657, "EPHEMERIS_TYPE": 0, "CLASSIFICATION_TYPE": "U", "NORAD_CAT_ID": 30723, "ELEMENT_SET_NO": 999, "REV_AT_EPOCH": 97569, "BSTAR": 0.0022084, "MEAN_MOTION_DOT": 7.145e-05, "MEAN_MOTION_DDOT": 0}, "tle": {"line1": "1 30723U 99025ASH 25360.49517659  .00007145  00000+0  22084-2 0  9996", "line2": "2 30723  98.8425  86.9961 0016505 222.5235 203.6657 14.41522552975696"}}, "geometry": {"type": "Point", "coordinates": [-148.12853008409536, -79.40337620194373]}}, {"type": "Feature", "properties": {"norad_id": 30724, "name": "FENGYUN 1C DEB", "group": "fengyun-1c-debris", "lat": -57.310666354738494, "lon": -157.63169883572397, "alt_km": 769.0271216533447, "timestamp": "2025-12-27T15:27:11.469051+00:00", "meta": {"OBJECT_NAME": "FENGYUN 1C DEB", "OBJECT_ID": "1999-025ASJ", "EPOCH": "2025-12-27T07:57:16.252704", "MEAN_MOTION": 14.3708818, "ECCENTRICITY": 0.00932067, "INCLINATION": 99.3158, "RA_OF_ASC_NODE": 187.21, "ARG_OF_PERICENTER": 217.2078, "MEAN_ANOMALY": 267.7402, "EPHEMERIS_TYPE": 0, "CLASSIFICATION_TYPE": "U", "NORAD_CAT_ID": 30724, "ELEMENT_SET_NO": 999, "REV_AT_EPOCH": 98662, "BSTAR": 0.00051669184, "MEAN_MOTION_DOT": 1.56e-05, "MEAN_MOTION_DDOT": 0}, "tle": {"line1": "1 30724U 99025ASJ 25361.33143811  .00001560  00000+0  51669-3 0  9993", "line2": "2 30724  99.3158 187.2100 0093206 217.2078 267.7402 14.37088180986628"}}, "geometry": {"type": "Point", "coordinates": [-157.63169883572397, -57.310666354738494]}}, {"type": "Feature", "properties": {"norad_id": 30725, "name": "FENGYUN 1C DEB", "group": "fengyun-1c-debris", "lat": 54.31552621120084, "lon": 57.869367125274344, "alt_km": 809.1898768769079, "timestamp": "2025-12-27T15:27:11.469061+00:00", "meta": {"OBJECT_NAME": "FENGYUN 1C DEB", "OBJECT_ID": "1999-025ASK", "EPOCH": "2025-12-27T03:37:54.679584", "MEAN_MOTION": 14.1613848, "ECCENTRICITY": 0.00866823, "INCLINATION": 99.0066, "RA_OF_ASC_NODE": 70.1301, "ARG_OF_PERICENTER": 348.9363, "MEAN_ANOMALY": 75.8315, "EPHEMERIS_TYPE": 0, "CLASSIFICATION_TYPE": "U", "NORAD_CAT_ID": 30725, "ELEMENT_SET_NO": 999, "REV_AT_EPOCH": 96552, "BSTAR": 0.0013572917, "MEAN_MOTION_DOT": 2.738e-05, "MEAN_MOTION_DDOT": 0}, "tle": {"line1": "1 30725U 99025ASK 25361.15132731  .00002738  00000+0  13573-2 0  9992", "line2": "2 30725  99.0066  70.1301 0086682 348.9363  75.8315 14.16138480965529"}}, "geometry": {"type": "Point", "coordinates": [57.869367125274344, 54.31552621120084]}}, {"type": "Feature", "properties": {"norad_id": 30726, "name": "FENGYUN 1C DEB", "group": "fengyun-1c-debris", "lat": 78.72184489757468, "lon": -51.14333685927295, "alt_km": 864.6164637788343, "timestamp": "2025-12-27T15:27:11.469071+00:00", "meta": {"OBJECT_NAME": "FENGYUN 1C DEB", "OBJECT_ID": "1999-025ASL", "EPOCH": "2025-12-26T07:17:05.195040", "MEAN_MOTION": 14.09351595, "ECCENTRICITY": 0.0078464, "INCLINATION": 99.2677, "RA_OF_ASC_NODE": 2.4393, "ARG_OF_PERICENTER": 188.3006, "MEAN_ANOMALY": 299.3753, "EPHEMERIS_TYPE": 0, "CLASSIFICATION_TYPE": "U", "NORAD_CAT_ID": 30726, "ELEMENT_SET_NO": 999, "REV_AT_EPOCH": 96174, "BSTAR": 0.0010623, "MEAN_MOTION_DOT": 1.858e-05, "MEAN_MOTION_DDOT": 0}, "tle": {"line1": "1 30726U 99025ASL 25360.30353235  .00001858  00000+0  10623-2 0  9998", "line2": "2 30726  99.2677   2.4393 0078464 188.3006 299.3753 14.09351595961743"}}, "geometry": {"type": "Point", "coordinates": [-51.14333685927295, 78.72184489757468]}}]}